{
    "links": {
        "self": "http://www.neowsapp.com/rest/v1/neo/3745062?api_key=iIulBulltgU6a56xZRHN4H3l9WmuAYTsLGpBGhQ2"
    },
    "id": "3745062",
    "neo_reference_id": "3745062",
    "name": "(2016 ES1)",
    "designation": "2016 ES1",
    "nasa_jpl_url": "http://ssd.jpl.nasa.gov/sbdb.cgi?sstr=3745062",
    "absolute_magnitude_h": 24.2,
    "estimated_diameter": {
        "kilometers": {
            "estimated_diameter_min": 0.0384197891,
            "estimated_diameter_max": 0.0859092601
        },
        "meters": {
            "estimated_diameter_min": 38.4197891064,
            "estimated_diameter_max": 85.9092601232
        },
        "miles": {
            "estimated_diameter_min": 0.0238729428,
            "estimated_diameter_max": 0.0533815229
        },
        "feet": {
            "estimated_diameter_min": 126.0491808919,
            "estimated_diameter_max": 281.8545369825
        }
    },
    "is_potentially_hazardous_asteroid": false,
    "close_approach_data": [
        {
            "close_approach_date": "2016-03-10",
            "close_approach_date_full": "2016-Mar-10 20:18",
            "epoch_date_close_approach": 1457641080000,
            "relative_velocity": {
                "kilometers_per_second": "8.4408611729",
                "kilometers_per_hour": "30387.1002225035",
                "miles_per_hour": "18881.3623576995"
            },
            "miss_distance": {
                "astronomical": "0.0904593885",
                "lunar": "35.1887021265",
                "kilometers": "13532531.841102495",
                "miles": "8408725.368284631"
            },
            "orbiting_body": "Earth"
        }
    ],
    "orbital_data": {
        "orbit_id": "15",
        "orbit_determination_date": "2017-04-06 08:27:52",
        "first_observation_date": "2016-03-03",
        "last_observation_date": "2016-04-01",
        "data_arc_in_days": 29,
        "observations_used": 72,
        "orbit_uncertainty": "7",
        "minimum_orbit_intersection": ".0885577",
        "jupiter_tisserand_invariant": "3.702",
        "epoch_osculation": "2459000.5",
        "eccentricity": ".4637036962481779",
        "semi_major_axis": "1.977253674558588",
        "inclination": "11.49737916748616",
        "ascending_node_longitude": "358.6451173544448",
        "orbital_period": "1015.528261018848",
        "perihelion_distance": "1.060393837245479",
        "perihelion_argument": "153.6267110675398",
        "aphelion_distance": "2.894113511871697",
        "perihelion_time": "2459474.093265260856",
        "mean_anomaly": "192.1134112773412",
        "mean_motion": ".354495304383576",
        "equinox": "J2000",
        "orbit_class": {
            "orbit_class_type": "AMO",
            "orbit_class_description": "Near-Earth asteroid orbits similar to that of 1221 Amor",
            "orbit_class_range": "1.017 AU < q (perihelion) < 1.3 AU"
        }
    },
    "is_sentry_object": false
}